
# Worst residual: 18.83 km
# MJD 60604.000000 (2024 Oct 21  0:00)
TESS = 2018-038A = NORAD 43435
1 43435U 18038A   24295.49919926  .00000000  00000-0  00000-0 0 24559
2 43435 052.5096 059.9260 4556943 120.6937 207.9866 00.07701396    04

# Worst residual: 16.06 km
# MJD 60605.000000 (2024 Oct 22  0:00)
TESS = 2018-038A = NORAD 43435
1 43435U 18038A   24296.49919926  .00000000  00000-0  00000-0 0 24550
2 43435 052.5108 059.8888 4581367 120.3956 236.5104 00.07702913    08

# Worst residual: 18.93 km
# MJD 60606.000000 (2024 Oct 23  0:00)
TESS = 2018-038A = NORAD 43435
1 43435U 18038A   24297.49919926  .00000000  00000-0  00000-0 0 24551
2 43435 052.5226 059.8251 4608654 120.1830 264.9375 00.07695925    00

# Worst residual: 27.47 km
# MJD 60607.000000 (2024 Oct 24  0:00)
TESS = 2018-038A = NORAD 43435
1 43435U 18038A   24298.49919926  .00000000  00000-0  00000-0 0 24552
2 43435 052.5584 059.7441 4642279 120.0635 293.2609 00.07678965    00

# Worst residual: 41.23 km
# MJD 60608.000000 (2024 Oct 25  0:00)
TESS = 2018-038A = NORAD 43435
1 43435U 18038A   24299.49919926  .00000000  00000-0  00000-0 0 24553
2 43435 052.6418 059.6766 4685962 120.0425 321.4356 00.07640858    02

# Worst residual: 52.25 km
# MJD 60609.000000 (2024 Oct 26  0:00)
TESS = 2018-038A = NORAD 43435
1 43435U 18038A   24300.49919926  .00000000  00000-0  00000-0 0 24556
2 43435 052.7572 059.7241 4740058 120.2853 349.1563 00.07572042    04

# Worst residual: 73.37 km
# MJD 60610.000000 (2024 Oct 27  0:00)
TESS = 2018-038A = NORAD 43435
1 43435U 18038A   24301.49919926  .00000000  00000-0  00000-0 0 24557
2 43435 052.6940 059.8443 4745422 121.1295 016.1287 00.07550224    09

# Worst residual: 29.95 km
# MJD 60611.000000 (2024 Oct 28  0:00)
TESS = 2018-038A = NORAD 43435
1 43435U 18038A   24302.49919926  .00000000  00000-0  00000-0 0 24558
2 43435 052.5637 059.6839 4695874 121.7498 043.4973 00.07589527    07

# Worst residual: 23.95 km
# MJD 60612.000000 (2024 Oct 29  0:00)
TESS = 2018-038A = NORAD 43435
1 43435U 18038A   24303.49919926  .00000000  00000-0  00000-0 0 24559
2 43435 052.5533 059.4818 4652678 121.8607 071.4435 00.07627280    08

# Worst residual: 18.10 km
# MJD 60613.000000 (2024 Oct 30  0:00)
TESS = 2018-038A = NORAD 43435
1 43435U 18038A   24304.49919926  .00000000  00000-0  00000-0 0 24550
2 43435 052.5988 059.3603 4621747 121.7323 099.6501 00.07650281    03

# Worst residual: 15.30 km
# MJD 60614.000000 (2024 Oct 31  0:00)
TESS = 2018-038A = NORAD 43435
1 43435U 18038A   24305.49919926  .00000000  00000-0  00000-0 0 24551
2 43435 052.6467 059.2937 4598247 121.5237 127.9133 00.07658195    03

# Worst residual: 12.38 km
# MJD 60615.000000 (2024 Nov  1  0:00)
TESS = 2018-038A = NORAD 43435
1 43435U 18038A   24306.49919926  .00000000  00000-0  00000-0 0 24552
2 43435 052.6847 059.2442 4578669 121.2933 156.1292 00.07654488    03

# Worst residual: 10.32 km
# MJD 60616.000000 (2024 Nov  2  0:00)
TESS = 2018-038A = NORAD 43435
1 43435U 18038A   24307.49919926  .00000000  00000-0  00000-0 0 24553
2 43435 052.7154 059.1906 4559708 121.0615 184.2323 00.07640964    08

# Worst residual: 8.89 km
# MJD 60617.000000 (2024 Nov  3  0:00)
TESS = 2018-038A = NORAD 43435
1 43435U 18038A   24308.49919926  .00000000  00000-0  00000-0 0 24554
2 43435 052.7421 059.1279 4539913 120.8119 212.1981 00.07619540    07

# Worst residual: 7.60 km
# MJD 60618.000000 (2024 Nov  4  0:00)
TESS = 2018-038A = NORAD 43435
1 43435U 18038A   24309.49919926  .00000000  00000-0  00000-0 0 24555
2 43435 052.7623 059.0612 4521050 120.5157 240.0349 00.07592673    08

# Worst residual: 7.18 km
# MJD 60619.000000 (2024 Nov  5  0:00)
TESS = 2018-038A = NORAD 43435
1 43435U 18038A   24310.49919926  .00000000  00000-0  00000-0 0 24557
2 43435 052.7731 058.9894 4509036 120.1981 267.7321 00.07565583    05

# Worst residual: 4.11 km
# MJD 60620.000000 (2024 Nov  6  0:00)
TESS = 2018-038A = NORAD 43435
1 43435U 18038A   24311.49919926  .00000000  00000-0  00000-0 0 24558
2 43435 052.7868 058.9042 4509369 119.9928 295.2287 00.07547413    06

# Worst residual: 12.11 km
# MJD 60621.000000 (2024 Nov  7  0:00)
TESS = 2018-038A = NORAD 43435
1 43435U 18038A   24312.49919926  .00000000  00000-0  00000-0 0 24559
2 43435 052.8369 058.8173 4515892 120.1526 322.3937 00.07558060    07

# Worst residual: 27.85 km
# MJD 60622.000000 (2024 Nov  8  0:00)
TESS = 2018-038A = NORAD 43435
1 43435U 18038A   24313.49919926  .00000000  00000-0  00000-0 0 24550
2 43435 052.9289 058.8125 4498503 120.5862 349.3911 00.07617994    05

# Worst residual: 20.73 km
# MJD 60623.000000 (2024 Nov  9  0:00)
TESS = 2018-038A = NORAD 43435
1 43435U 18038A   24314.49919926  .00000000  00000-0  00000-0 0 24551
2 43435 052.9019 058.8720 4477402 120.5478 016.9210 00.07663726    08

# Worst residual: 16.44 km
# MJD 60624.000000 (2024 Nov 10  0:00)
TESS = 2018-038A = NORAD 43435
1 43435U 18038A   24315.49919926  .00000000  00000-0  00000-0 0 24552
2 43435 052.8102 058.7655 4486526 120.6714 044.3994 00.07639155    00

# Worst residual: 14.74 km
# MJD 60625.000000 (2024 Nov 11  0:00)
TESS = 2018-038A = NORAD 43435
1 43435U 18038A   24316.49919926  .00000000  00000-0  00000-0 0 24553
2 43435 052.8068 058.6160 4474378 120.9718 071.8058 00.07620917    02

# Worst residual: 16.55 km
# MJD 60626.000000 (2024 Nov 12  0:00)
TESS = 2018-038A = NORAD 43435
1 43435U 18038A   24317.49919926  .00000000  00000-0  00000-0 0 24554
2 43435 052.8573 058.5502 4447473 120.9913 099.5943 00.07622745    06

# Worst residual: 20.34 km
# MJD 60627.000000 (2024 Nov 13  0:00)
TESS = 2018-038A = NORAD 43435
1 43435U 18038A   24318.49919926  .00000000  00000-0  00000-0 0 24555
2 43435 052.9048 058.5784 4425469 120.6708 127.8295 00.07634862    04

# Worst residual: 24.55 km
# MJD 60628.000000 (2024 Nov 14  0:00)
TESS = 2018-038A = NORAD 43435
1 43435U 18038A   24319.49919926  .00000000  00000-0  00000-0 0 24556
2 43435 052.9227 058.6449 4417574 120.1567 156.3665 00.07648169    01

# Worst residual: 24.98 km
# MJD 60629.000000 (2024 Nov 15  0:00)
TESS = 2018-038A = NORAD 43435
1 43435U 18038A   24320.49919926  .00000000  00000-0  00000-0 0 24558
2 43435 052.9172 058.6929 4421773 119.6074 185.0276 00.07655226    04

# Worst residual: 23.07 km
# MJD 60630.000000 (2024 Nov 16  0:00)
TESS = 2018-038A = NORAD 43435
1 43435U 18038A   24321.49919926  .00000000  00000-0  00000-0 0 24559
2 43435 052.9059 058.6974 4431475 119.0919 213.6820 00.07650179    05

# Worst residual: 23.19 km
# MJD 60631.000000 (2024 Nov 17  0:00)
TESS = 2018-038A = NORAD 43435
1 43435U 18038A   24322.49919926  .00000000  00000-0  00000-0 0 24550
2 43435 052.8952 058.6643 4440501 118.5643 242.2846 00.07626380    00

# Worst residual: 22.72 km
# MJD 60632.000000 (2024 Nov 18  0:00)
TESS = 2018-038A = NORAD 43435
1 43435U 18038A   24323.49919926  .00000000  00000-0  00000-0 0 24551
2 43435 052.8863 058.6041 4454389 118.0032 270.7518 00.07584448    09

# Worst residual: 19.43 km
# MJD 60633.000000 (2024 Nov 19  0:00)
TESS = 2018-038A = NORAD 43435
1 43435U 18038A   24324.49919926  .00000000  00000-0  00000-0 0 24552
2 43435 052.8754 058.5213 4480130 117.4828 298.9270 00.07527875    05

# Worst residual: 14.90 km
# MJD 60634.000000 (2024 Nov 20  0:00)
TESS = 2018-038A = NORAD 43435
1 43435U 18038A   24325.49919926  .00000000  00000-0  00000-0 0 24553
2 43435 052.8767 058.4156 4512609 117.3329 326.4518 00.07484751    03

# Worst residual: 34.27 km
# MJD 60635.000000 (2024 Nov 21  0:00)
TESS = 2018-038A = NORAD 43435
1 43435U 18038A   24326.49919926  .00000000  00000-0  00000-0 0 24554
2 43435 052.9279 058.3627 4499966 117.8497 353.2497 00.07537269    02

# Worst residual: 29.31 km
# MJD 60636.000000 (2024 Nov 22  0:00)
TESS = 2018-038A = NORAD 43435
1 43435U 18038A   24327.49919926  .00000000  00000-0  00000-0 0 24555
2 43435 052.8861 058.3869 4475285 118.1275 020.4369 00.07581220    09

# Worst residual: 19.25 km
# MJD 60637.000000 (2024 Nov 23  0:00)
TESS = 2018-038A = NORAD 43435
1 43435U 18038A   24328.49919926  .00000000  00000-0  00000-0 0 24556
2 43435 052.7972 058.2670 4479906 118.5350 047.4698 00.07544540    00

# Worst residual: 8.81 km
# MJD 60638.000000 (2024 Nov 24  0:00)
TESS = 2018-038A = NORAD 43435
1 43435U 18038A   24329.49919926  .00000000  00000-0  00000-0 0 24557
2 43435 052.7858 058.1067 4470228 118.9225 074.4107 00.07516678    01

# Worst residual: 9.64 km
# MJD 60639.000000 (2024 Nov 25  0:00)
TESS = 2018-038A = NORAD 43435
1 43435U 18038A   24330.49919926  .00000000  00000-0  00000-0 0 24559
2 43435 052.8216 057.9920 4452429 119.0615 101.5533 00.07506919    05

# Worst residual: 9.01 km
# MJD 60640.000000 (2024 Nov 26  0:00)
TESS = 2018-038A = NORAD 43435
1 43435U 18038A   24331.49919926  .00000000  00000-0  00000-0 0 24550
2 43435 052.8659 057.9240 4435037 118.9959 128.9140 00.07504466    08

# Worst residual: 9.51 km
# MJD 60641.000000 (2024 Nov 27  0:00)
TESS = 2018-038A = NORAD 43435
1 43435U 18038A   24332.49919926  .00000000  00000-0  00000-0 0 24551
2 43435 052.9021 057.8773 4419922 118.8196 156.4027 00.07500713    00

# Worst residual: 9.56 km
# MJD 60642.000000 (2024 Nov 28  0:00)
TESS = 2018-038A = NORAD 43435
1 43435U 18038A   24333.49919926  .00000000  00000-0  00000-0 0 24552
2 43435 052.9295 057.8291 4405090 118.5933 183.9181 00.07490452    09

# Worst residual: 9.48 km
# MJD 60643.000000 (2024 Nov 29  0:00)
TESS = 2018-038A = NORAD 43435
1 43435U 18038A   24334.49919926  .00000000  00000-0  00000-0 0 24553
2 43435 052.9519 057.7698 4388120 118.3265 211.3851 00.07471089    03

# Worst residual: 9.03 km
# MJD 60644.000000 (2024 Nov 30  0:00)
TESS = 2018-038A = NORAD 43435
1 43435U 18038A   24335.49919926  .00000000  00000-0  00000-0 0 24554
2 43435 052.9704 057.7000 4369436 117.9967 238.7576 00.07442642    09

# Worst residual: 8.09 km
# MJD 60645.000000 (2024 Dec  1  0:00)
TESS = 2018-038A = NORAD 43435
1 43435U 18038A   24336.49919926  .00000000  00000-0  00000-0 0 24555
2 43435 052.9826 057.6217 4354512 117.6158 265.9837 00.07409497    04
